{"fetched_at":"2026-03-29T02:12:04Z","count":15717,"tles":[{"name":"STARLINK-5361","line1":"1 57142U 23090AT  26087.49390532  .00022473  00000+0  84631-3 0  9993","line2":"2 57142  43.0003 156.7640 0001277 260.8342  99.2364 15.26685146153233","category":"Starlink"}]}